STARLINK-2705           
1 48672U 21044AL  26068.33834318 -.00004992  00000+0 -15241-3 0  9994
2 48672  53.1598 105.8091 0001581  77.9359 282.1819 15.31035302263903
TEVEL2-6                
1 63215U 25052F   26068.64958975  .00021046  00000+0  70909-3 0  9996
2 63215  97.4016 325.0381 0004769  95.6604 264.5181 15.30760889 54861
